[{"OBJECT_NAME":"SAOCOM 1A","OBJECT_ID":"2018-076A","EPOCH":"2026-04-15T06:48:31.463136","MEAN_MOTION":14.82147411,"ECCENTRICITY":0.00014635,"INCLINATION":97.8906,"RA_OF_ASC_NODE":292.9402,"ARG_OF_PERICENTER":92.3274,"MEAN_ANOMALY":267.8107,"EPHEMERIS_TYPE":0,"CLASSIFICATION_TYPE":"U","NORAD_CAT_ID":43641,"ELEMENT_SET_NO":999,"REV_AT_EPOCH":40678,"BSTAR":6.4305512e-5,"MEAN_MOTION_DOT":4.6e-6,"MEAN_MOTION_DDOT":0},{"OBJECT_NAME":"H-2A R/B","OBJECT_ID":"2018-084L","EPOCH":"2026-04-15T03:12:12.581280","MEAN_MOTION":15.42890465,"ECCENTRICITY":0.00230932,"INCLINATION":98.8679,"RA_OF_ASC_NODE":330.3484,"ARG_OF_PERICENTER":255.55,"MEAN_ANOMALY":104.3181,"EPHEMERIS_TYPE":0,"CLASSIFICATION_TYPE":"U","NORAD_CAT_ID":43682,"ELEMENT_SET_NO":999,"REV_AT_EPOCH":41139,"BSTAR":0.00024824433,"MEAN_MOTION_DOT":0.00010889,"MEAN_MOTION_DDOT":0},{"OBJECT_NAME":"SAOCOM 1B","OBJECT_ID":"2020-059A","EPOCH":"2026-04-15T07:33:32.086944","MEAN_MOTION":14.82157329,"ECCENTRICITY":0.00014638,"INCLINATION":97.8893,"RA_OF_ASC_NODE":292.0657,"ARG_OF_PERICENTER":84.8015,"MEAN_ANOMALY":275.3366,"EPHEMERIS_TYPE":0,"CLASSIFICATION_TYPE":"U","NORAD_CAT_ID":46265,"ELEMENT_SET_NO":999,"REV_AT_EPOCH":30417,"BSTAR":-4.736978e-5,"MEAN_MOTION_DOT":-4.29e-6,"MEAN_MOTION_DDOT":0},{"OBJECT_NAME":"CSS (TIANHE)","OBJECT_ID":"2021-035A","EPOCH":"2026-04-15T02:32:08.256768","MEAN_MOTION":15.62404897,"ECCENTRICITY":0.00056496,"INCLINATION":41.4685,"RA_OF_ASC_NODE":346.2837,"ARG_OF_PERICENTER":210.9621,"MEAN_ANOMALY":149.0886,"EPHEMERIS_TYPE":0,"CLASSIFICATION_TYPE":"U","NORAD_CAT_ID":48274,"ELEMENT_SET_NO":999,"REV_AT_EPOCH":28330,"BSTAR":0.00020097799,"MEAN_MOTION_DOT":0.00018051,"MEAN_MOTION_DDOT":0},{"OBJECT_NAME":"COSMOS 2550","OBJECT_ID":"2021-056A","EPOCH":"2026-04-14T04:27:39.218112","MEAN_MOTION":15.33831095,"ECCENTRICITY":0.00083746,"INCLINATION":67.1432,"RA_OF_ASC_NODE":293.5083,"ARG_OF_PERICENTER":268.8034,"MEAN_ANOMALY":91.2161,"EPHEMERIS_TYPE":0,"CLASSIFICATION_TYPE":"U","NORAD_CAT_ID":48865,"ELEMENT_SET_NO":999,"REV_AT_EPOCH":26890,"BSTAR":3.66837e-7,"MEAN_MOTION_DOT":-1.8e-6,"MEAN_MOTION_DDOT":0},{"OBJECT_NAME":"CZ-2C R/B","OBJECT_ID":"2022-058K","EPOCH":"2026-04-14T19:19:25.733280","MEAN_MOTION":15.56978256,"ECCENTRICITY":0.00403785,"INCLINATION":50.1865,"RA_OF_ASC_NODE":132.1202,"ARG_OF_PERICENTER":355.4659,"MEAN_ANOMALY":4.5942,"EPHEMERIS_TYPE":0,"CLASSIFICATION_TYPE":"U","NORAD_CAT_ID":52794,"ELEMENT_SET_NO":999,"REV_AT_EPOCH":21575,"BSTAR":0.00030459326,"MEAN_MOTION_DOT":0.00022823,"MEAN_MOTION_DDOT":0},{"OBJECT_NAME":"CZ-2C R/B","OBJECT_ID":"2022-132E","EPOCH":"2026-04-14T23:28:52.345632","MEAN_MOTION":15.65344295,"ECCENTRICITY":0.0013613,"INCLINATION":97.2941,"RA_OF_ASC_NODE":109.4939,"ARG_OF_PERICENTER":321.3126,"MEAN_ANOMALY":38.7158,"EPHEMERIS_TYPE":0,"CLASSIFICATION_TYPE":"U","NORAD_CAT_ID":54039,"ELEMENT_SET_NO":999,"REV_AT_EPOCH":19604,"BSTAR":0.0003138,"MEAN_MOTION_DOT":0.00031284,"MEAN_MOTION_DDOT":0},{"OBJECT_NAME":"GSLV R/B","OBJECT_ID":"2022-138AN","EPOCH":"2026-04-15T03:42:01.932192","MEAN_MOTION":14.9698991,"ECCENTRICITY":0.00223238,"INCLINATION":87.3833,"RA_OF_ASC_NODE":154.1485,"ARG_OF_PERICENTER":25.8074,"MEAN_ANOMALY":334.4266,"EPHEMERIS_TYPE":0,"CLASSIFICATION_TYPE":"U","NORAD_CAT_ID":54149,"ELEMENT_SET_NO":999,"REV_AT_EPOCH":18938,"BSTAR":0.00011410028,"MEAN_MOTION_DOT":1.347e-5,"MEAN_MOTION_DDOT":0},{"OBJECT_NAME":"XRISM","OBJECT_ID":"2023-137A","EPOCH":"2026-04-15T05:16:43.288608","MEAN_MOTION":15.1191357,"ECCENTRICITY":0.00075268,"INCLINATION":31.0027,"RA_OF_ASC_NODE":47.303,"ARG_OF_PERICENTER":46.5933,"MEAN_ANOMALY":313.5332,"EPHEMERIS_TYPE":0,"CLASSIFICATION_TYPE":"U","NORAD_CAT_ID":57800,"ELEMENT_SET_NO":999,"REV_AT_EPOCH":14332,"BSTAR":0.00015176868,"MEAN_MOTION_DOT":2.762e-5,"MEAN_MOTION_DDOT":0},{"OBJECT_NAME":"ACS3","OBJECT_ID":"2024-077B","EPOCH":"2026-04-14T13:11:06.324000","MEAN_MOTION":13.91258553,"ECCENTRICITY":0.0072226,"INCLINATION":97.191,"RA_OF_ASC_NODE":37.6042,"ARG_OF_PERICENTER":359.7596,"MEAN_ANOMALY":0.3522,"EPHEMERIS_TYPE":0,"CLASSIFICATION_TYPE":"U","NORAD_CAT_ID":59588,"ELEMENT_SET_NO":999,"REV_AT_EPOCH":9918,"BSTAR":0.0021868,"MEAN_MOTION_DOT":2.786e-5,"MEAN_MOTION_DDOT":0},{"OBJECT_NAME":"HTV-X1","OBJECT_ID":"2025-241A","EPOCH":"2026-04-14T18:38:25.941696","MEAN_MOTION":15.32643759,"ECCENTRICITY":0.0007486,"INCLINATION":51.6355,"RA_OF_ASC_NODE":259.0566,"ARG_OF_PERICENTER":312.6087,"MEAN_ANOMALY":47.4262,"EPHEMERIS_TYPE":0,"CLASSIFICATION_TYPE":"U","NORAD_CAT_ID":66174,"ELEMENT_SET_NO":999,"REV_AT_EPOCH":2647,"BSTAR":0.00013917839,"MEAN_MOTION_DOT":4.085e-5,"MEAN_MOTION_DDOT":0},{"OBJECT_NAME":"SZ-21 MODULE","OBJECT_ID":"2025-246C","EPOCH":"2026-04-15T00:18:21.195648","MEAN_MOTION":15.71468192,"ECCENTRICITY":0.00044584,"INCLINATION":41.475,"RA_OF_ASC_NODE":339.2725,"ARG_OF_PERICENTER":272.7054,"MEAN_ANOMALY":87.3278,"EPHEMERIS_TYPE":0,"CLASSIFICATION_TYPE":"U","NORAD_CAT_ID":66515,"ELEMENT_SET_NO":999,"REV_AT_EPOCH":2378,"BSTAR":0.00019362829,"MEAN_MOTION_DOT":0.0002524,"MEAN_MOTION_DDOT":0}]
