SAOCOM 1A               
1 43641U 18076A   26105.28369749  .00000460  00000+0  64306-4 0  9994
2 43641  97.8906 292.9402 0001463  92.3274 267.8107 14.82147411406787
H-2A R/B                
1 43682U 18084L   26105.13347895  .00010889  00000+0  24824-3 0  9996
2 43682  98.8679 330.3484 0023093 255.5500 104.3181 15.42890465411396
SAOCOM 1B               
1 46265U 20059A   26105.31495471 -.00000429  00000+0 -47370-4 0  9998
2 46265  97.8893 292.0657 0001463  84.8015 275.3366 14.82157329304179
CSS (TIANHE)            
1 48274U 21035A   26105.10565112  .00018051  00000+0  20098-3 0  9997
2 48274  41.4685 346.2837 0005649 210.9621 149.0886 15.62404897283301
COSMOS 2550             
1 48865U 21056A   26104.18587058 -.00000180  00000+0  36684-6 0  9992
2 48865  67.1432 293.5083 0008374 268.8034  91.2161 15.33831095268902
CZ-2C R/B               
1 52794U 22058K   26104.80515895  .00022823  00000+0  30459-3 0  9998
2 52794  50.1865 132.1202 0040378 355.4659   4.5942 15.56978256215752
CZ-2C R/B               
1 54039U 22132E   26104.97838363  .00031284  00000+0  31380-3 0  9996
2 54039  97.2941 109.4939 0013613 321.3126  38.7158 15.65344295196048
GSLV R/B                
1 54149U 22138AN  26105.15418903  .00001347  00000+0  11410-3 0  9998
2 54149  87.3833 154.1485 0022323  25.8074 334.4266 14.96989910189386
XRISM                   
1 57800U 23137A   26105.21994547  .00002762  00000+0  15177-3 0  9991
2 57800  31.0027  47.3030 0007526  46.5933 313.5332 15.11913570143328
ACS3                    
1 59588U 24077B   26104.54937875  .00002786  00000+0  21868-2 0  9995
2 59588  97.1910  37.6042 0072226 359.7596   0.3522 13.91258553 99180
HTV-X1                  
1 66174U 25241A   26104.77668914  .00004085  00000+0  13918-3 0  9990
2 66174  51.6355 259.0566 0007486 312.6087  47.4262 15.32643759 26475
SZ-21 MODULE            
1 66515U 25246C   26105.01274532  .00025240  00000+0  19363-3 0  9997
2 66515  41.4750 339.2725 0004458 272.7054  87.3278 15.71468192 23784
